{
  "type": "FeatureCollection",
  "features": [
    { "type": "Feature", "properties": { "NOMBDEP": "LORETO", "CAPITAL": "Iquitos", "ZONA_MONITOREO": "Amazonía Baja Norte", "CRITICO_FUEGO": "SI" }, "geometry": { "type": "Polygon", "coordinates": [[[-77.8, -0.05], [-75.2, -0.05], [-69.9, -4.2], [-73.5, -8.6], [-76.0, -6.5], [-77.8, -0.05]]] } },
    { "type": "Feature", "properties": { "NOMBDEP": "UCAYALI", "CAPITAL": "Pucallpa", "ZONA_MONITOREO": "Amazonía Baja Centro", "CRITICO_FUEGO": "SI" }, "geometry": { "type": "Polygon", "coordinates": [[[-75.8, -7.3], [-73.5, -8.6], [-70.5, -9.8], [-72.5, -11.5], [-75.0, -10.5], [-75.8, -7.3]]] } },
    { "type": "Feature", "properties": { "NOMBDEP": "MADRE DE DIOS", "CAPITAL": "Puerto Maldonado", "ZONA_MONITOREO": "Amazonía Baja Sur", "CRITICO_FUEGO": "SI" }, "geometry": { "type": "Polygon", "coordinates": [[[-72.5, -11.5], [-70.5, -9.8], [-68.7, -12.5], [-69.5, -13.5], [-72.0, -13.2], [-72.5, -11.5]]] } },
    { "type": "Feature", "properties": { "NOMBDEP": "SAN MARTIN", "CAPITAL": "Moyobamba", "ZONA_MONITOREO": "Amazonía Alta Norte", "CRITICO_FUEGO": "SI" }, "geometry": { "type": "Polygon", "coordinates": [[[-77.8, -5.5], [-76.0, -6.5], [-75.8, -7.3], [-77.2, -8.5], [-78.0, -6.5], [-77.8, -5.5]]] } },
    { "type": "Feature", "properties": { "NOMBDEP": "HUANUCO", "CAPITAL": "Huánuco", "ZONA_MONITOREO": "Amazonía Alta Centro", "CRITICO_FUEGO": "SI" }, "geometry": { "type": "Polygon", "coordinates": [[[-77.2, -8.5], [-75.0, -10.5], [-75.8, -10.2], [-76.8, -10.0], [-77.2, -8.5]]] } },
    { "type": "Feature", "properties": { "NOMBDEP": "CUSCO", "CAPITAL": "Cusco", "ZONA_MONITOREO": "Andes Sur", "CRITICO_FUEGO": "NO" }, "geometry": { "type": "Polygon", "coordinates": [[[-73.5, -12.0], [-72.0, -13.2], [-70.5, -14.5], [-72.5, -15.0], [-73.5, -12.0]]] } },
    { "type": "Feature", "properties": { "NOMBDEP": "JUNIN", "CAPITAL": "Huancayo", "ZONA_MONITOREO": "Andes Centro", "CRITICO_FUEGO": "NO" }, "geometry": { "type": "Polygon", "coordinates": [[[-76.5, -11.0], [-74.5, -11.0], [-74.5, -12.5], [-76.0, -12.5], [-76.5, -11.0]]] } },
    { "type": "Feature", "properties": { "NOMBDEP": "PASCO", "CAPITAL": "Cerro de Pasco", "ZONA_MONITOREO": "Andes Centro", "CRITICO_FUEGO": "NO" }, "geometry": { "type": "Polygon", "coordinates": [[[-76.8, -10.0], [-74.8, -9.8], [-74.8, -11.0], [-76.5, -11.0], [-76.8, -10.0]]] } },
    { "type": "Feature", "properties": { "NOMBDEP": "AMAZONAS", "CAPITAL": "Chachapoyas", "ZONA_MONITOREO": "Amazonía Alta Norte", "CRITICO_FUEGO": "NO" }, "geometry": { "type": "Polygon", "coordinates": [[[-78.8, -3.0], [-77.8, -0.05], [-77.8, -5.5], [-78.5, -6.5], [-78.8, -3.0]]] } },
    { "type": "Feature", "properties": { "NOMBDEP": "CAJAMARCA", "CAPITAL": "Cajamarca", "ZONA_MONITOREO": "Andes Norte", "CRITICO_FUEGO": "NO" }, "geometry": { "type": "Polygon", "coordinates": [[[-79.5, -4.8], [-78.8, -3.0], [-78.5, -6.5], [-78.8, -7.5], [-79.5, -4.8]]] } },
    { "type": "Feature", "properties": { "NOMBDEP": "PIURA", "CAPITAL": "Piura", "ZONA_MONITOREO": "Costa Norte", "CRITICO_FUEGO": "NO" }, "geometry": { "type": "Polygon", "coordinates": [[[-81.3, -4.6], [-79.5, -4.8], [-79.5, -6.0], [-81.0, -6.0], [-81.3, -4.6]]] } },
    { "type": "Feature", "properties": { "NOMBDEP": "TUMBES", "CAPITAL": "Tumbes", "ZONA_MONITOREO": "Costa Norte", "CRITICO_FUEGO": "NO" }, "geometry": { "type": "Polygon", "coordinates": [[[-81.3, -3.4], [-80.1, -3.4], [-80.3, -4.2], [-81.3, -4.6], [-81.3, -3.4]]] } },
    { "type": "Feature", "properties": { "NOMBDEP": "LAMBAYEQUE", "CAPITAL": "Chiclayo", "ZONA_MONITOREO": "Costa Norte", "CRITICO_FUEGO": "NO" }, "geometry": { "type": "Polygon", "coordinates": [[[-80.5, -6.0], [-79.2, -6.0], [-79.5, -7.2], [-80.5, -7.0], [-80.5, -6.0]]] } },
    { "type": "Feature", "properties": { "NOMBDEP": "LA LIBERTAD", "CAPITAL": "Trujillo", "ZONA_MONITOREO": "Costa Norte / Andes Norte", "CRITICO_FUEGO": "NO" }, "geometry": { "type": "Polygon", "coordinates": [[[-79.5, -7.2], [-77.8, -7.5], [-78.0, -8.8], [-79.2, -8.8], [-79.5, -7.2]]] } },
    { "type": "Feature", "properties": { "NOMBDEP": "ANCASH", "CAPITAL": "Huaraz", "ZONA_MONITOREO": "Andes Norte", "CRITICO_FUEGO": "NO" }, "geometry": { "type": "Polygon", "coordinates": [[[-78.5, -8.5], [-76.8, -9.0], [-77.2, -10.5], [-78.3, -10.2], [-78.5, -8.5]]] } },
    { "type": "Feature", "properties": { "NOMBDEP": "LIMA", "CAPITAL": "Lima", "ZONA_MONITOREO": "Costa Sur / Andes Centro", "CRITICO_FUEGO": "NO" }, "geometry": { "type": "Polygon", "coordinates": [[[-77.8, -10.5], [-75.5, -10.8], [-75.8, -13.0], [-76.8, -13.0], [-77.8, -10.5]]] } },
    { "type": "Feature", "properties": { "NOMBDEP": "CALLAO", "CAPITAL": "Callao", "ZONA_MONITOREO": "Costa Sur", "CRITICO_FUEGO": "NO" }, "geometry": { "type": "Polygon", "coordinates": [[[-77.2, -11.9], [-77.1, -11.9], [-77.1, -12.1], [-77.2, -12.1], [-77.2, -11.9]]] } },
    { "type": "Feature", "properties": { "NOMBDEP": "ICA", "CAPITAL": "Ica", "ZONA_MONITOREO": "Costa Sur", "CRITICO_FUEGO": "NO" }, "geometry": { "type": "Polygon", "coordinates": [[[-76.5, -13.0], [-75.0, -13.5], [-74.5, -15.5], [-76.0, -15.5], [-76.5, -13.0]]] } },
    { "type": "Feature", "properties": { "NOMBDEP": "HUANCAVELICA", "CAPITAL": "Huancavelica", "ZONA_MONITOREO": "Andes Centro", "CRITICO_FUEGO": "NO" }, "geometry": { "type": "Polygon", "coordinates": [[[-75.8, -12.2], [-74.2, -12.0], [-74.8, -14.0], [-75.8, -13.5], [-75.8, -12.2]]] } },
    { "type": "Feature", "properties": { "NOMBDEP": "AYACUCHO", "CAPITAL": "Ayacucho", "ZONA_MONITOREO": "Andes Sur", "CRITICO_FUEGO": "NO" }, "geometry": { "type": "Polygon", "coordinates": [[[-74.5, -12.2], [-73.5, -12.5], [-73.2, -15.5], [-74.8, -15.5], [-74.5, -12.2]]] } },
    { "type": "Feature", "properties": { "NOMBDEP": "APURIMAC", "CAPITAL": "Abancay", "ZONA_MONITOREO": "Andes Sur", "CRITICO_FUEGO": "NO" }, "geometry": { "type": "Polygon", "coordinates": [[[-73.8, -13.2], [-72.2, -13.5], [-72.8, -14.8], [-73.8, -14.5], [-73.8, -13.2]]] } },
    { "type": "Feature", "properties": { "NOMBDEP": "AREQUIPA", "CAPITAL": "Arequipa", "ZONA_MONITOREO": "Costa Sur / Andes Sur", "CRITICO_FUEGO": "NO" }, "geometry": { "type": "Polygon", "coordinates": [[[-75.0, -15.2], [-71.5, -14.8], [-71.0, -16.5], [-73.2, -16.8], [-75.0, -15.2]]] } },
    { "type": "Feature", "properties": { "NOMBDEP": "PUNO", "CAPITAL": "Puno", "ZONA_MONITOREO": "Andes Sur", "CRITICO_FUEGO": "NO" }, "geometry": { "type": "Polygon", "coordinates": [[[-71.5, -13.8], [-68.8, -14.0], [-68.7, -16.8], [-71.0, -16.5], [-71.5, -13.8]]] } },
    { "type": "Feature", "properties": { "NOMBDEP": "MOQUEGUA", "CAPITAL": "Moquegua", "ZONA_MONITOREO": "Costa Sur", "CRITICO_FUEGO": "NO" }, "geometry": { "type": "Polygon", "coordinates": [[[-71.5, -16.2], [-70.2, -16.5], [-70.8, -17.8], [-71.5, -17.2], [-71.5, -16.2]]] } },
    { "type": "Feature", "properties": { "NOMBDEP": "TACNA", "CAPITAL": "Tacna", "ZONA_MONITOREO": "Costa Sur", "CRITICO_FUEGO": "NO" }, "geometry": { "type": "Polygon", "coordinates": [[[-71.0, -17.2], [-69.6, -17.2], [-70.3, -18.3], [-71.3, -18.3], [-71.0, -17.2]]] } }
  ]
}
