{"type": "FeatureCollection", "features": [{"type": "Feature", "geometry": {"type": "Polygon", "coordinates": [[[-75.22920898499996, -10.75946085399994], [-75.22843935999998, -10.759650353999973], [-75.22842410999993, -10.759658728999966], [-75.22761823499997, -10.76009672899994], [-75.22754023499994, -10.760139103999961], [-75.22752698499994, -10.760146353999971], [-75.22752460999999, -10.76014760399994], [-75.22752198499995, -10.760149103999936], [-75.22752085999997, -10.760149603999935], [-75.22751948499996, -10.760150353999961], [-75.22751798499996, -10.760150728999974], [-75.22747048499997, -10.760168853999971], [-75.22588110999999, -10.760538103999977], [-75.22402060999997, -10.761304228999961], [-75.22237885999994, -10.762508103999949], [-75.22051835999997, -10.763821478999944], [-75.21904085999995, -10.764368728999955], [-75.21614048499998, -10.764642353999932], [-75.21324023499994, -10.765298978999965], [-75.21088710999999, -10.765572603999942], [-75.20765848499997, -10.765463103999934], [-75.20612623499994, -10.765353728999969], [-75.20418398499999, -10.764676228999974], [-75.19906698499994, -10.770661853999968], [-75.19523648499995, -10.775258478999945], [-75.19178885999997, -10.778541853999968], [-75.19098032399995, -10.779359286999977], [-75.18994898499994, -10.780401978999976], [-75.18880110999999, -10.783070978999945], [-75.18821823499997, -10.78404235399995], [-75.18866598499994, -10.785310478999975], [-75.18789473499999, -10.785494103999952], [-75.18726473499999, -10.78564410399997], [-75.18530373499993, -10.786222103999933], [-75.18370473499994, -10.786793228999954], [-75.18102073499995, -10.788392228999953], [-75.17907898499999, -10.790105478999976], [-75.17787973499998, -10.79176160399993], [-75.17536710999997, -10.797929103999934], [-75.17365385999994, -10.803411353999934], [-75.17263760999998, -10.810472603999926], [-75.17171223499997, -10.814604353999925], [-75.17155323499998, -10.816238728999963], [-75.17131235999994, -10.818716103999975], [-75.17079848499998, -10.819972478999944], [-75.16937085999996, -10.821514478999973], [-75.16754335999997, -10.823341853999978], [-75.16640123499997, -10.825169228999926], [-75.16570173499997, -10.826727228999971], [-75.16451310999997, -10.828525978999949], [-75.16213610999995, -10.831192228999953], [-75.16168635999998, -10.832637728999941], [-75.16114023499995, -10.835014853999951], [-75.16117235999997, -10.83639610399996], [-75.16175060999996, -10.837552478999953], [-75.16377935999998, -10.84009022899994], [-75.16409585999997, -10.840963228999954], [-75.16438473499994, -10.841760603999944], [-75.16666535999997, -10.84468372899994], [-75.16704210999995, -10.84592310399995], [-75.16726785999998, -10.84739572899997], [-75.16733998499996, -10.850337353999976], [-75.16843210999997, -10.852939228999958], [-75.16997398499996, -10.856472728999961], [-75.17077710999996, -10.857211603999929], [-75.17176060999998, -10.85830660399995], [-75.17333173499998, -10.859780478999937], [-75.17392960999996, -10.860100228999954], [-75.17463873499997, -10.860308853999982], [-75.17641848499994, -10.860698103999937], [-75.17733623499998, -10.860642478999978], [-75.17790348499994, -10.860575478999976], [-75.17887485999995, -10.860460853999939], [-75.18107798499994, -10.860950228999968], [-75.18265798499993, -10.86204410399995], [-75.18285610999999, -10.86234922899996], [-75.18403485999994, -10.864164478999953], [-75.18536848499997, -10.86621772899997], [-75.18633435999999, -10.870490728999926], [-75.18794473499997, -10.874470978999966], [-75.18891698499993, -10.875412853999933], [-75.18963860999997, -10.87525960399995], [-75.19019310999994, -10.875108978999947], [-75.19080073499998, -10.873863228999937], [-75.19134760999998, -10.871402228999955], [-75.19274535999995, -10.868971478999981], [-75.19551360999998, -10.865740603999939], [-75.19652723499996, -10.864244853999935], [-75.19679698499993, -10.86356660399997], [-75.19723285999999, -10.862470978999966], [-75.19822848499996, -10.861169853999968], [-75.19927148499994, -10.86036310399993], [-75.20152685999994, -10.859003478999966], [-75.20276835999994, -10.858037853999974], [-75.20352260999994, -10.857451228999935], [-75.20499435999994, -10.856221478999942], [-75.20848198499993, -10.854124853999963], [-75.21055473499996, -10.85216410399994], [-75.21743285999997, -10.845657728999981], [-75.21948285999997, -10.844148228999927], [-75.22094110999996, -10.84351010399996], [-75.22200460999994, -10.843844353999941], [-75.22303773499993, -10.844725478999976], [-75.22410548499994, -10.845415853999953], [-75.22529510999993, -10.84550472899997], [-75.22543798499999, -10.845515478999971], [-75.22662298499995, -10.845819228999972], [-75.22789910999995, -10.846913103999952], [-75.22941823499997, -10.84870572899996], [-75.23057285999994, -10.84976910399996], [-75.23242623499993, -10.85016410399993], [-75.23379348499998, -10.850315978999959], [-75.23552535999994, -10.850741353999979], [-75.23674073499996, -10.85092372899993], [-75.23728748499997, -10.851440228999934], [-75.23822948499998, -10.852837853999972], [-75.23950560999998, -10.853840478999928], [-75.24196660999996, -10.855207728999972], [-75.24354660999995, -10.85642310399993], [-75.24433660999995, -10.857577728999956], [-75.24454923499997, -10.858762603999935], [-75.24497723499996, -10.859684103999939], [-75.24524023499998, -10.860249978999946], [-75.24524123499998, -10.860250228999973], [-75.24524273499998, -10.86025060399993], [-75.24632023499998, -10.860509728999943], [-75.24682998499998, -10.860730478999926], [-75.24746873499998, -10.86115035399996], [-75.24774023499998, -10.861419853999962], [-75.24849023499996, -10.861999978999961], [-75.24887885999993, -10.862460853999949], [-75.24946248499998, -10.86346185399998], [-75.24961910999997, -10.863730478999969], [-75.24976948499994, -10.864150353999946], [-75.24999023499998, -10.864499978999959], [-75.25028898499994, -10.864771478999955], [-75.25066985999996, -10.86492960399994], [-75.25129873499998, -10.864900353999928], [-75.25227923499995, -10.864630853999927], [-75.25299023499997, -10.864550728999973], [-75.25307023499994, -10.864540978999969], [-75.25533973499995, -10.864531228999965], [-75.25666010999998, -10.864240228999961], [-75.25782910999999, -10.863877478999939], [-75.25852923499997, -10.863660103999962], [-75.25959210999997, -10.863836853999942], [-75.25993935999998, -10.863894478999953], [-75.26041985999996, -10.863579978999951], [-75.26087885999993, -10.86335147899996], [-75.26207023499995, -10.86254097899996], [-75.26235935999995, -10.86249997899995], [-75.26406048499996, -10.86311122899997], [-75.26418935999999, -10.86315035399997], [-75.26452923499994, -10.863441353999974], [-75.26481048499994, -10.863480478999975], [-75.26549998499996, -10.863460853999982], [-75.26702923499994, -10.862880853999968], [-75.26762885999995, -10.86274022899994], [-75.26803898499998, -10.862710853999943], [-75.26849998499995, -10.86297060399994], [-75.26868935999994, -10.863220603999935], [-75.26942960999997, -10.863771478999979], [-75.26978898499993, -10.864191353999956], [-75.26980260999994, -10.864201478999973], [-75.27065560999995, -10.864976978999948], [-75.27071510999997, -10.865326978999974], [-75.27081660999994, -10.865982478999967], [-75.27112860999995, -10.866552103999936], [-75.27171398499996, -10.86724672899993], [-75.27224473499996, -10.867769478999946], [-75.27274410999996, -10.868167478999965], [-75.27415660999998, -10.869252228999926], [-75.27466385999998, -10.869782853999936], [-75.27521010999999, -10.870570978999979], [-75.27527360999994, -10.87069285399997], [-75.27579535999996, -10.87169485399994], [-75.27589685999999, -10.872201978999954], [-75.27594360999996, -10.872826353999926], [-75.27591235999995, -10.873832978999928], [-75.27578760999995, -10.874792853999963], [-75.27556910999994, -10.875502978999975], [-75.27452335999999, -10.877016853999976], [-75.27423460999995, -10.877446103999944], [-75.27396935999997, -10.877922103999936], [-75.27384448499998, -10.87835135399996], [-75.27378198499997, -10.878819478999958], [-75.27384448499998, -10.879475103999937], [-75.27414873499998, -10.880294478999929], [-75.27446873499997, -10.880637853999929], [-75.27529598499996, -10.881597603999978], [-75.27564710999997, -10.88222197899995], [-75.27592023499994, -10.882994478999933], [-75.27641185999994, -10.883860728999935], [-75.27664598499996, -10.884047978999945], [-75.27708298499994, -10.88423535399994], [-75.27748098499995, -10.884367978999933], [-75.27810510999996, -10.884469353999975], [-75.27890123499998, -10.884469353999975], [-75.28022023499994, -10.884391353999945], [-75.28234548499995, -10.883958853999957], [-75.28290448499996, -10.883845103999931], [-75.28359610999996, -10.88389172899997], [-75.28414535999997, -10.88424310399995], [-75.28494123499996, -10.884851728999934], [-75.28559660999997, -10.885608728999955], [-75.28581523499997, -10.885952103999955], [-75.28586985999993, -10.88639685399994], [-75.28579185999996, -10.886927603999936], [-75.28554223499998, -10.888152728999955], [-75.28557335999994, -10.888901853999926], [-75.28558898499995, -10.889463728999942], [-75.28554998499999, -10.890134853999939], [-75.28533148499997, -10.890618728999925], [-75.28467598499998, -10.89146147899993], [-75.28390335999995, -10.892304353999975], [-75.28214773499997, -10.893708978999939], [-75.28130473499994, -10.894723478999936], [-75.28100035999995, -10.895316478999973], [-75.28082873499994, -10.895956478999949], [-75.28053223499995, -10.897165978999965], [-75.28022785999997, -10.897782478999943], [-75.27954898499996, -10.89892185399998], [-75.27886223499996, -10.900498228999936], [-75.27858910999998, -10.90157510399996], [-75.27847198499995, -10.90228510399993], [-75.27851885999996, -10.903049978999945], [-75.27865148499995, -10.903564978999952], [-75.27899485999995, -10.90430635399997], [-75.27938510999996, -10.904782478999948], [-75.27972835999998, -10.904961853999964], [-75.28023560999998, -10.905000728999937], [-75.28068273499997, -10.905000728999937], [-75.28107848499997, -10.905000728999937], [-75.28152323499995, -10.90510235399995], [-75.28158348499994, -10.905148853999947], [-75.28183535999995, -10.90534422899998], [-75.28225673499998, -10.905929478999951], [-75.28279523499998, -10.906756728999937], [-75.28294348499998, -10.907131353999944], [-75.28299023499994, -10.907427853999934], [-75.28296698499997, -10.90775560399993], [-75.28284210999993, -10.90826285399993], [-75.28284210999993, -10.908520353999961], [-75.28297473499998, -10.90878572899993], [-75.28347423499997, -10.909409978999975], [-75.28362248499997, -10.90971435399996], [-75.28394235999997, -10.910252728999978], [-75.28409073499995, -10.910728853999956], [-75.28414535999997, -10.911087728999973], [-75.28417648499999, -10.911688603999949], [-75.28444623499996, -10.911947103999978], [-75.28446873499996, -10.911970603999976], [-75.28447935999998, -10.911964353999963], [-75.28457498499995, -10.911907478999979], [-75.28483385999994, -10.911753228999942], [-75.28499023499995, -10.911660103999964], [-75.28591010999997, -10.911589853999942], [-75.28606048499995, -10.911540978999938], [-75.28636910999995, -10.911249978999933], [-75.28673035999998, -10.910669853999934], [-75.28695898499996, -10.910390603999929], [-75.28707510999999, -10.910307228999955], [-75.28745898499994, -10.91003122899997], [-75.28816010999998, -10.909710853999968], [-75.28856810999997, -10.90935060399994], [-75.28892960999997, -10.909031228999936], [-75.28932023499993, -10.908890603999964], [-75.28982023499998, -10.908810478999953], [-75.29019910999995, -10.908810478999953], [-75.29081048499995, -10.908890603999964], [-75.29115035999996, -10.90904097899994], [-75.29146873499997, -10.909351478999952], [-75.29185935999999, -10.909861228999944], [-75.29200973499997, -10.910290978999967], [-75.29231048499997, -10.910781228999952], [-75.29291985999998, -10.91152147899993], [-75.29326585999996, -10.911859353999944], [-75.29341985999997, -10.912009728999976], [-75.29395898499996, -10.91246085399996], [-75.29462885999999, -10.912621103999982], [-75.29624998499997, -10.912679603999948], [-75.29678898499998, -10.912781228999961], [-75.29731048499997, -10.912960853999948], [-75.29791010999998, -10.913400353999975], [-75.29917960999995, -10.914640603999942], [-75.29996873499994, -10.915300728999966], [-75.30043935999998, -10.915521478999949], [-75.30141985999995, -10.915679603999934], [-75.30206048499997, -10.915880853999965], [-75.30273035999994, -10.916220603999932], [-75.30318935999998, -10.916509728999927], [-75.30414060999993, -10.917240228999958], [-75.30471873499994, -10.917611228999931], [-75.30645898499995, -10.918509728999936], [-75.30792960999997, -10.918999978999977], [-75.30828623499997, -10.91907585399997], [-75.30882998499999, -10.919191353999963], [-75.30946873499994, -10.919400353999947], [-75.31075973499998, -10.919960853999953], [-75.31289060999995, -10.920499978999942], [-75.31328898499999, -10.920570228999964], [-75.31478898499995, -10.921101478999958], [-75.31554873499994, -10.921249978999981], [-75.31612885999994, -10.921290978999934], [-75.31657073499997, -10.92138360399997], [-75.31736910999996, -10.921550728999932], [-75.31799998499997, -10.921900353999945], [-75.31868935999995, -10.92246085399995], [-75.31953898499995, -10.923070228999961], [-75.31954760999997, -10.923072353999942], [-75.32028985999995, -10.923308978999955], [-75.32219360999994, -10.923546853999937], [-75.32323435999996, -10.92350197899998], [-75.32476273499998, -10.923079728999937], [-75.32517223499997, -10.92271097899993], [-75.32635748499996, -10.921643353999968], [-75.32823135999996, -10.919531603999928], [-75.32968860999995, -10.917568478999954], [-75.33057973499996, -10.915569853999955], [-75.33057910999997, -10.915568978999943], [-75.32999073499997, -10.914735728999972], [-75.32981048499994, -10.914480478999963], [-75.32932148499998, -10.91363935399994], [-75.32879873499996, -10.91274022899995], [-75.32869910999995, -10.912410103999946], [-75.32866985999993, -10.912079978999941], [-75.32884960999996, -10.911380853999958], [-75.32901948499995, -10.911140603999968], [-75.32952923499994, -10.910650353999927], [-75.32984960999994, -10.910490228999947], [-75.33076160999997, -10.910435478999943], [-75.33223035999998, -10.909980478999955], [-75.33267960999996, -10.909701103999964], [-75.33352923499996, -10.908771478999938], [-75.33484960999994, -10.907031228999926], [-75.33537885999993, -10.906589853999947], [-75.33567960999994, -10.906259728999942], [-75.33652923499994, -10.905970603999947], [-75.33757023499999, -10.905191353999953], [-75.33787885999999, -10.905101478999939], [-75.33803898499997, -10.904960853999967], [-75.33898035999994, -10.904669853999962], [-75.33928898499994, -10.904621103999943], [-75.34057998499998, -10.904701103999969], [-75.34156048499995, -10.904919853999957], [-75.34334960999996, -10.905111228999942], [-75.34498035999997, -10.905419853999945], [-75.34564060999998, -10.905499978999956], [-75.34599023499999, -10.905499978999956], [-75.34661910999995, -10.905410103999941], [-75.34746873499995, -10.905079978999936], [-75.34800560999997, -10.904707603999952], [-75.34818935999994, -10.904579978999948], [-75.34869910999998, -10.90403122899994], [-75.34909960999994, -10.903371103999973], [-75.34959960999998, -10.90270110399996], [-75.35055073499996, -10.901876853999966], [-75.35158973499995, -10.901570228999958], [-75.35231048499998, -10.90142960399993], [-75.35319910999993, -10.901361228999974], [-75.35359960999995, -10.90142960399993], [-75.35486910999998, -10.901419853999926], [-75.35615035999996, -10.901460853999936], [-75.35677923499998, -10.901390603999971], [-75.35741010999999, -10.901390603999971], [-75.35875973499998, -10.901601478999964], [-75.36017960999999, -10.902031228999931], [-75.36032023499996, -10.902031228999931], [-75.36062885999996, -10.901951103999977], [-75.36115035999995, -10.901720603999934], [-75.36187885999993, -10.901191353999934], [-75.36257023499996, -10.900521478999963], [-75.36382998499994, -10.899880853999946], [-75.36445898499994, -10.899380853999958], [-75.36511910999997, -10.898771478999947], [-75.36558973499996, -10.898451103999946], [-75.36610935999994, -10.897980478999955], [-75.36641010999995, -10.897771478999971], [-75.36685823499994, -10.897556978999944], [-75.36751948499995, -10.897240228999976], [-75.36824023499997, -10.896781228999942], [-75.36903898499997, -10.895919853999942], [-75.36962885999998, -10.894900353999958], [-75.36984960999996, -10.894419853999977], [-75.36985273499994, -10.894411353999942], [-75.37009735999999, -10.893662228999972], [-75.37106673499994, -10.889700853999955], [-75.37228685999997, -10.886140728999976], [-75.37317298499994, -10.884404853999968], [-75.37402273499998, -10.882414853999933], [-75.37447410999994, -10.881435228999976], [-75.37517848499994, -10.879906353999957], [-75.37700873499995, -10.87729547899994], [-75.37892285999999, -10.87572935399993], [-75.38195923499995, -10.872275103999925], [-75.38334760999999, -10.869700228999932], [-75.38442848499994, -10.868299228999945], [-75.38572735999998, -10.86493685399995], [-75.38429973499996, -10.864308603999973], [-75.38266148499997, -10.862464603999967], [-75.38143910999997, -10.861708603999944], [-75.38039823499997, -10.859368353999969], [-75.37897073499994, -10.856117228999949], [-75.37848398499995, -10.85587135399993], [-75.37511273499996, -10.854168478999952], [-75.37357498499995, -10.853473478999945], [-75.37234273499996, -10.85276410399996], [-75.36976898499995, -10.851156603999925], [-75.36792960999998, -10.850153478999971], [-75.36670435999997, -10.849894228999972], [-75.36575598499996, -10.849693603999981], [-75.36441823499996, -10.849735478999946], [-75.36273773499994, -10.85011247899996], [-75.36214548499999, -10.848616353999944], [-75.36165073499996, -10.847791728999937], [-75.36154073499995, -10.847351978999939], [-75.36154073499995, -10.846307478999961], [-75.36099110999999, -10.845592728999975], [-75.36049623499997, -10.844108478999942], [-75.36038635999995, -10.843063978999965], [-75.35978160999997, -10.842349353999964], [-75.35950673499997, -10.841689603999953], [-75.35895698499996, -10.840810103999956], [-75.35873710999994, -10.839930478999975], [-75.35835223499998, -10.839105853999968], [-75.35807748499997, -10.838501103999931], [-75.35741773499996, -10.83778647899993], [-75.35708785999998, -10.837401603999979], [-75.35648323499998, -10.836796978999928], [-75.35615335999995, -10.836192228999948], [-75.35604335999994, -10.835587478999969], [-75.35626323499997, -10.834982853999975], [-75.35642823499995, -10.83448797899996], [-75.35637323499998, -10.833883353999965], [-75.35570660999997, -10.833200728999941], [-75.35609835999998, -10.832398978999947], [-75.35615335999995, -10.831794353999953], [-75.35637323499998, -10.831244603999949], [-75.35633798499998, -10.830756853999958], [-75.35587848499995, -10.830419978999942], [-75.35532873499994, -10.829815228999962], [-75.35490110999996, -10.829115228999967], [-75.35472848499995, -10.828539853999928], [-75.35521873499994, -10.828001103999952], [-75.35571348499997, -10.827341478999926], [-75.35604335999994, -10.826681728999972], [-75.35620835999998, -10.825857103999965], [-75.35620835999998, -10.825087478999933], [-75.35626323499997, -10.824207853999951], [-75.35598835999997, -10.823053478999952], [-75.35565860999998, -10.821349228999964], [-75.35526435999998, -10.820267103999981], [-75.36117060999999, -10.819292228999927], [-75.36187885999993, -10.819169853999938], [-75.36171873499995, -10.818820228999925], [-75.36121873499997, -10.818201103999968], [-75.36069910999998, -10.817710853999927], [-75.36001948499995, -10.816781228999957], [-75.35977923499996, -10.815871103999939], [-75.35975973499995, -10.815509728999928], [-75.35959960999998, -10.814601478999975], [-75.35916010999995, -10.813630853999939], [-75.35883973499995, -10.81327147899998], [-75.35691985999995, -10.81146085399996], [-75.35660935999994, -10.810820228999944], [-75.35658973499994, -10.809630853999977], [-75.35641985999996, -10.809079978999932], [-75.35591010999997, -10.808460853999975], [-75.35584960999995, -10.808191353999973], [-75.35549023499993, -10.807410103999928], [-75.35457023499998, -10.80602147899998], [-75.35396873499997, -10.805021478999947], [-75.35362885999996, -10.804601478999928], [-75.35340035999997, -10.804111228999943], [-75.35267960999994, -10.803490228999976], [-75.35176948499998, -10.802829978999966], [-75.35016010999993, -10.802060478999977], [-75.34969910999996, -10.801669853999954], [-75.34916010999996, -10.801111228999957], [-75.34851948499994, -10.800640603999966], [-75.34789060999998, -10.800290978999953], [-75.34693935999996, -10.799871103999976], [-75.34631048499995, -10.799669853999944], [-75.34541985999994, -10.799490228999957], [-75.34473035999997, -10.799521478999964], [-75.34309960999997, -10.79980072899997], [-75.34189060999995, -10.800249978999943], [-75.34039060999999, -10.80052147899994], [-75.33981523499995, -10.80053672899993], [-75.33965035999995, -10.800540978999948], [-75.33878898499995, -10.800660103999974], [-75.33865035999997, -10.80073047899998], [-75.33851860999994, -10.80085897899994], [-75.33842573499999, -10.80094947899994], [-75.33818935999994, -10.80117960399997], [-75.33781585999998, -10.801276228999939], [-75.33760273499996, -10.802194603999965], [-75.33737960999997, -10.803046353999946], [-75.33699423499996, -10.803695478999941], [-75.33654798499998, -10.804222728999946], [-75.33581785999996, -10.804831228999944], [-75.33533110999997, -10.805541103999929], [-75.33472260999997, -10.806636353999977], [-75.33427635999993, -10.807589728999972], [-75.33393160999998, -10.80848210399995], [-75.33395185999996, -10.80935422899995], [-75.33397210999993, -10.81030747899996], [-75.33393160999998, -10.810997103999966], [-75.33348535999994, -10.811625853999942], [-75.33285660999996, -10.812092353999958], [-75.33238810999995, -10.812061978999964], [-75.33129285999996, -10.811960478999936], [-75.33080610999997, -10.812061978999964], [-75.33013673499994, -10.812467603999949], [-75.32985285999996, -10.812893478999968], [-75.32981223499996, -10.81340060399998], [-75.32964998499995, -10.813765603999968], [-75.32936598499998, -10.814171353999939], [-75.32910235999998, -10.814718978999963], [-75.32871698499997, -10.815205728999956], [-75.32845335999997, -10.815895353999963], [-75.32833160999996, -10.816483478999942], [-75.32829110999995, -10.816990603999955], [-75.32804760999994, -10.817436728999951], [-75.32776373499996, -10.817882978999933], [-75.32735810999998, -10.818390103999945], [-75.32683073499999, -10.819018853999978], [-75.32646560999996, -10.819363603999932], [-75.32575573499997, -10.819789478999951], [-75.32520810999995, -10.820073478999973], [-75.32474160999999, -10.820438603999946], [-75.32409260999998, -10.820884728999943], [-75.32332185999996, -10.821351228999958], [-75.32263223499996, -10.821817728999974], [-75.32216573499994, -10.822000353999954], [-75.32176010999996, -10.821979978999934], [-75.32084735999996, -10.821736603999966], [-75.32029973499994, -10.821675853999977], [-75.31989410999995, -10.821655478999958], [-75.31940735999996, -10.821817728999974], [-75.31887998499997, -10.822284228999933], [-75.31853523499996, -10.823095603999946], [-75.31829185999999, -10.823683728999981], [-75.31804848499996, -10.824008228999958], [-75.31774423499996, -10.824474728999974], [-75.31725748499997, -10.824900728999978], [-75.31650698499999, -10.825509228999977], [-75.31585798499998, -10.825935103999939], [-75.31522923499995, -10.826300228999969], [-75.31466123499996, -10.826705853999954], [-75.31411360999994, -10.826949228999979], [-75.31354573499993, -10.827273728999955], [-75.31299610999997, -10.827344728999947], [-75.31200223499997, -10.827385353999944], [-75.31113010999997, -10.827425853999955], [-75.31047335999995, -10.827749478999976], [-75.31042173499998, -10.827952603999961], [-75.31017385999996, -10.828227853999977], [-75.30993723499995, -10.828821603999927], [-75.30962323499995, -10.829405728999973], [-75.30923660999997, -10.830047478999973], [-75.30918885999995, -10.83066960399998], [-75.30918473499997, -10.831544853999958], [-75.30910185999994, -10.832111103999978], [-75.30873673499997, -10.832962978999944], [-75.30855423499997, -10.833611978999954], [-75.30814860999999, -10.834362478999935], [-75.30794573499998, -10.834828978999951], [-75.30745898499998, -10.835335978999979], [-75.30695198499996, -10.835863353999969], [-75.30628260999998, -10.836350103999962], [-75.30559298499998, -10.837039728999969], [-75.30488310999993, -10.837668478999944], [-75.30427460999994, -10.838236353999946], [-75.30376760999997, -10.838500103999934], [-75.30289548499996, -10.838581228999942], [-75.30208410999995, -10.838500103999934], [-75.30147573499994, -10.83843922899996], [-75.30074548499994, -10.838500103999934], [-75.30009648499998, -10.838540603999945], [-75.29948798499998, -10.838540603999945], [-75.29879835999998, -10.838844853999944], [-75.29835223499998, -10.839108478999947], [-75.29804798499998, -10.839189603999955], [-75.29770310999999, -10.83943297899998], [-75.29725698499993, -10.839676478999934], [-75.29683098499999, -10.839798103999954], [-75.29638485999999, -10.839798103999954], [-75.29599948499998, -10.83989947899994], [-75.29561410999997, -10.83996035399997], [-75.29512723499994, -10.83996035399997], [-75.29459998499993, -10.83996035399997], [-75.29413348499997, -10.839858978999928], [-75.29347360999998, -10.839591353999936], [-75.29272748499994, -10.83896985399997], [-75.29219923499994, -10.838515728999937], [-75.29165935999998, -10.838262228999952], [-75.29129385999994, -10.838195853999935], [-75.29072598499994, -10.838459478999937], [-75.29048423499995, -10.838630228999932], [-75.29018296899994, -10.838878568999974], [-75.28966810999998, -10.839302978999967], [-75.28907348499996, -10.84019847899998], [-75.28883185999996, -10.840725103999944], [-75.28879348499999, -10.841084103999947], [-75.28884223499995, -10.841414353999937], [-75.28883760999997, -10.841600978999963], [-75.28874585999995, -10.841816353999945], [-75.28871135999998, -10.84195522899995], [-75.28836910999996, -10.84206047899994], [-75.28800973499995, -10.841730478999978], [-75.28750973499996, -10.841630853999959], [-75.28666010999996, -10.841669853999974], [-75.28553898499996, -10.841749978999928], [-75.28452923499998, -10.841650353999967], [-75.28389060999996, -10.84145110399993], [-75.28307998499997, -10.841031228999952], [-75.28210935999994, -10.839910103999955], [-75.28099023499993, -10.838351478999925], [-75.28033973499998, -10.83715035399996], [-75.27982023499999, -10.836550728999953], [-75.27914060999996, -10.83599997899995], [-75.27866985999998, -10.835749978999957], [-75.27816010999999, -10.835361228999943], [-75.27797323499993, -10.835252353999977], [-75.27769973499994, -10.835092853999981], [-75.27676948499999, -10.834550728999943], [-75.27606048499996, -10.834040978999951], [-75.27507998499993, -10.833009728999969], [-75.27278123499997, -10.831013353999936], [-75.27225973499998, -10.830560478999928], [-75.27167960999998, -10.830169853999962], [-75.27049023499995, -10.829509728999938], [-75.26985935999994, -10.829310478999957], [-75.26907023499996, -10.829271478999942], [-75.26723035999999, -10.829691353999976], [-75.26664060999997, -10.829630853999959], [-75.26629873499996, -10.829540978999944], [-75.26586910999998, -10.829310478999957], [-75.26529873499999, -10.828781228999958], [-75.26424998499994, -10.828050728999926], [-75.26327923499997, -10.82697060399994], [-75.26282023499994, -10.82620110399995], [-75.26235935999995, -10.82529097899993], [-75.26200973499994, -10.824101478999978], [-75.26181048499996, -10.823130853999942], [-75.26173035999994, -10.822540978999939], [-75.26077923499997, -10.820290978999935], [-75.26053898499998, -10.819509728999947], [-75.26057312299997, -10.819045372999938], [-75.26061910999994, -10.818419853999956], [-75.26076948499997, -10.817710853999927], [-75.26075973499997, -10.817169853999928], [-75.26061910999994, -10.816601478999928], [-75.26020898499996, -10.815970603999972], [-75.25961910999996, -10.81537110399995], [-75.25853898499997, -10.813730478999958], [-75.25824998499996, -10.81308985399994], [-75.25783973499995, -10.812070228999971], [-75.25783973499995, -10.811201103999963], [-75.25767960999997, -10.810390603999963], [-75.25751948499999, -10.809910103999925], [-75.25691985999998, -10.809579978999977], [-75.25600973499996, -10.809259728999962], [-75.25514060999996, -10.80915035399994], [-75.25421873499994, -10.808880853999938], [-75.25319910999997, -10.808179603999974], [-75.25249023499998, -10.807419853999932], [-75.25162885999998, -10.806771478999963], [-75.25059960999994, -10.80602147899998], [-75.24978898499995, -10.80537110399996], [-75.24924998499995, -10.804499978999957], [-75.24839060999994, -10.803800728999931], [-75.24819010999994, -10.803475978999927], [-75.24795898499997, -10.803101478999963], [-75.24746873499998, -10.801960853999958], [-75.24724998499994, -10.800941353999974], [-75.24682023499997, -10.799101478999944], [-75.24682023499997, -10.797589853999966], [-75.24670898499994, -10.79596085399993], [-75.24661960999998, -10.795298478999939], [-75.24659960999998, -10.79515035399993], [-75.24600973499997, -10.794130853999945], [-75.24541010999997, -10.793150353999977], [-75.24432998499998, -10.791960853999967], [-75.24346873499996, -10.790560478999964], [-75.24314060999995, -10.78937110399994], [-75.24303898499994, -10.78835147899997], [-75.24303898499994, -10.787360976999935], [-75.24303898499994, -10.786400353999966], [-75.24316010999996, -10.785249978999957], [-75.24342960999996, -10.78445110399997], [-75.24357998499994, -10.78360147899997], [-75.24358973499994, -10.782970603999956], [-75.24348035999998, -10.782710853999959], [-75.24343935999997, -10.781701103999978], [-75.24350973499998, -10.781300728999952], [-75.24351948499998, -10.780730478999942], [-75.24366010999995, -10.780390603999933], [-75.24367960999996, -10.780050728999981], [-75.24370498499997, -10.779928603999963], [-75.24387885999994, -10.779089853999949], [-75.24424023499995, -10.777839853999978], [-75.24451948499996, -10.777179603999969], [-75.24520898499998, -10.77602147899995], [-75.24532998499996, -10.775521478999963], [-75.24528898499995, -10.775031228999978], [-75.24510935999996, -10.774460853999926], [-75.24470898499999, -10.773781228999951], [-75.24453898499996, -10.77313085399993], [-75.24452923499996, -10.771960853999929], [-75.24460935999997, -10.771509728999945], [-75.24460935999997, -10.771021978999954], [-75.24460935999997, -10.77029097899998], [-75.24451948499996, -10.769660103999968], [-75.24421873499995, -10.768441353999947], [-75.24418935999995, -10.767851478999944], [-75.24406048499998, -10.767169853999974], [-75.24404873499998, -10.76695110399993], [-75.24399023499996, -10.765800728999977], [-75.24401948499997, -10.765220603999978], [-75.24418935999995, -10.764160103999927], [-75.24390035999994, -10.763880853999979], [-75.24376948499997, -10.763810478999972], [-75.24310935999995, -10.76362110399998], [-75.24236323499997, -10.763380853999934], [-75.24134960999999, -10.763111228999946], [-75.23993935999994, -10.762240228999929], [-75.23871873499996, -10.76133985399997], [-75.23830273499993, -10.761027353999964], [-75.23701948499996, -10.76041010399996], [-75.23596873499997, -10.760290978999933], [-75.23491010999999, -10.760320228999944], [-75.23433973499993, -10.760429603999967], [-75.23379873499994, -10.760419853999963], [-75.23314060999996, -10.760300728999937], [-75.22973035999996, -10.759429603999934], [-75.22920898499996, -10.75946085399994]]]}, "properties": {"OBJECTID_1": 1101, "UBIGEO": "120304", "CODDEP": "12", "DEPARTAMEN": "JUNIN", "CODPROV": "03", "PROVINCIA": "CHANCHAMAYO", "CODDIST": "04", "DISTRITO": "SAN LUIS DE SHUARO", "CAPITAL": "SAN LUIS DE SHUARO", "FUENTE": "INEI"}}]}